[{"OBJECT_NAME":"ION SCV-004","OBJECT_ID":"2022-002K","EPOCH":"2026-03-09T16:32:03.244416","MEAN_MOTION":15.29369331,"ECCENTRICITY":0.00072157,"INCLINATION":97.2961,"RA_OF_ASC_NODE":128.2294,"ARG_OF_PERICENTER":1.6783,"MEAN_ANOMALY":358.448,"EPHEMERIS_TYPE":0,"CLASSIFICATION_TYPE":"U","NORAD_CAT_ID":50993,"ELEMENT_SET_NO":999,"REV_AT_EPOCH":23008,"BSTAR":0.00023198467,"MEAN_MOTION_DOT":6.538e-5,"MEAN_MOTION_DDOT":0},{"OBJECT_NAME":"STARLINK-30887","OBJECT_ID":"2023-178W","EPOCH":"2026-03-09T05:20:10.641696","MEAN_MOTION":15.3018891,"ECCENTRICITY":9.249e-5,"INCLINATION":53.1618,"RA_OF_ASC_NODE":3.5105,"ARG_OF_PERICENTER":88.339,"MEAN_ANOMALY":271.7716,"EPHEMERIS_TYPE":0,"CLASSIFICATION_TYPE":"U","NORAD_CAT_ID":58394,"ELEMENT_SET_NO":999,"REV_AT_EPOCH":12979,"BSTAR":3.0951253e-5,"MEAN_MOTION_DOT":5.58e-6,"MEAN_MOTION_DDOT":0}]
